{"type": "FeatureCollection", "features": [ {"type": "Feature", "properties": {"norad_id": 66604, "name": "STARLINK-35977", "group": "last-30-days", "lat": -40.03981856503085, "lon": 78.55384749854564, "alt_km": 445.9360998891307, "timestamp": "2025-12-21T07:34:33.300207+00:00", "meta": {"OBJECT_NAME": "STARLINK-35977", "OBJECT_ID": "2025-270S", "EPOCH": "2025-12-20T22:00:01.999584", "MEAN_MOTION": 15.40666923, "ECCENTRICITY": 0.000188, "INCLINATION": 43, "RA_OF_ASC_NODE": 145.2405, "ARG_OF_PERICENTER": 277.6169, "MEAN_ANOMALY": 316.1924, "EPHEMERIS_TYPE": 0, "CLASSIFICATION_TYPE": "U", "NORAD_CAT_ID": 66604, "ELEMENT_SET_NO": 999, "REV_AT_EPOCH": 571, "BSTAR": 0.0020351437, "MEAN_MOTION_DOT": 0.00085575, "MEAN_MOTION_DDOT": 0}, "tle": {"line1": "1 66604U 25270S   25354.91668981  .00085575  00000+0  20351-2 0  9997", "line2": "2 66604  43.0000 145.2405 0001880 277.6169 316.1924 15.40666923  5718"}}, "geometry": {"type": "Point", "coordinates": [78.55384749854564, -40.03981856503085]}}, {"type": "Feature", "properties": {"norad_id": 66605, "name": "STARLINK-36052", "group": "last-30-days", "lat": 2.6024063965847537, "lon": 145.55428936431932, "alt_km": 443.0553030627534, "timestamp": "2025-12-21T07:34:33.300217+00:00", "meta": {"OBJECT_NAME": "STARLINK-36052", "OBJECT_ID": "2025-270T", "EPOCH": "2025-12-20T22:00:01.999584", "MEAN_MOTION": 15.40669819, "ECCENTRICITY": 0.00022915, "INCLINATION": 42.9998, "RA_OF_ASC_NODE": 145.0582, "ARG_OF_PERICENTER": 283.1955, "MEAN_ANOMALY": 25.1373, "EPHEMERIS_TYPE": 0, "CLASSIFICATION_TYPE": "U", "NORAD_CAT_ID": 66605, "ELEMENT_SET_NO": 999, "REV_AT_EPOCH": 571, "BSTAR": 0.001891934, "MEAN_MOTION_DOT": 0.00079477, "MEAN_MOTION_DDOT": 0}, "tle": {"line1": "1 66605U 25270T   25354.91668981  .00079477  00000+0  18919-2 0  9999", "line2": "2 66605  42.9998 145.0582 0002291 283.1955  25.1373 15.40669819  5711"}}, "geometry": {"type": "Point", "coordinates": [145.55428936431932, 2.6024063965847537]}}, {"type": "Feature", "properties": {"norad_id": 66606, "name": "STARLINK-36063", "group": "last-30-days", "lat": 38.59398761977303, "lon": -96.44253355795927, "alt_km": 409.3536562700083, "timestamp": "2025-12-21T07:34:33.300226+00:00", "meta": {"OBJECT_NAME": "STARLINK-36063", "OBJECT_ID": "2025-270U", "EPOCH": "2025-12-19T11:48:20.511648", "MEAN_MOTION": 15.50662232, "ECCENTRICITY": 0.0001816, "INCLINATION": 42.9987, "RA_OF_ASC_NODE": 153.1595, "ARG_OF_PERICENTER": 282.0515, "MEAN_ANOMALY": 78.0141, "EPHEMERIS_TYPE": 0, "CLASSIFICATION_TYPE": "U", "NORAD_CAT_ID": 66606, "ELEMENT_SET_NO": 999, "REV_AT_EPOCH": 539, "BSTAR": 0.00079676, "MEAN_MOTION_DOT": 0.0004682, "MEAN_MOTION_DDOT": 0}, "tle": {"line1": "1 66606U 25270U   25353.49190407  .00046820  00000+0  79676-3 0  9999", "line2": "2 66606  42.9987 153.1595 0001816 282.0515  78.0141 15.50662232  5393"}}, "geometry": {"type": "Point", "coordinates": [-96.44253355795927, 38.59398761977303]}}, {"type": "Feature", "properties": {"norad_id": 66607, "name": "STARLINK-35993", "group": "last-30-days", "lat": 11.001897898649348, "lon": 154.77103216490087, "alt_km": 442.39649345705675, "timestamp": "2025-12-21T07:34:33.300235+00:00", "meta": {"OBJECT_NAME": "STARLINK-35993", "OBJECT_ID": "2025-270V", "EPOCH": "2025-12-20T22:00:01.999584", "MEAN_MOTION": 15.40667893, "ECCENTRICITY": 0.00018888, "INCLINATION": 42.9998, "RA_OF_ASC_NODE": 145.0284, "ARG_OF_PERICENTER": 275.0962, "MEAN_ANOMALY": 45.6818, "EPHEMERIS_TYPE": 0, "CLASSIFICATION_TYPE": "U", "NORAD_CAT_ID": 66607, "ELEMENT_SET_NO": 999, "REV_AT_EPOCH": 561, "BSTAR": 0.0016744795, "MEAN_MOTION_DOT": 0.00070216, "MEAN_MOTION_DDOT": 0}, "tle": {"line1": "1 66607U 25270V   25354.91668981  .00070216  00000+0  16745-2 0  9998", "line2": "2 66607  42.9998 145.0284 0001888 275.0962  45.6818 15.40667893  5611"}}, "geometry": {"type": "Point", "coordinates": [154.77103216490087, 11.001897898649348]}}, {"type": "Feature", "properties": {"norad_id": 66608, "name": "STARLINK-36036", "group": "last-30-days", "lat": 38.010419450698826, "lon": -94.52870649945193, "alt_km": 409.2080839522587, "timestamp": "2025-12-21T07:34:33.300245+00:00", "meta": {"OBJECT_NAME": "STARLINK-36036", "OBJECT_ID": "2025-270W", "EPOCH": "2025-12-19T11:47:53.026080", "MEAN_MOTION": 15.50612484, "ECCENTRICITY": 0.0001538, "INCLINATION": 42.999, "RA_OF_ASC_NODE": 153.1562, "ARG_OF_PERICENTER": 266.4602, "MEAN_ANOMALY": 93.6082, "EPHEMERIS_TYPE": 0, "CLASSIFICATION_TYPE": "U", "NORAD_CAT_ID": 66608, "ELEMENT_SET_NO": 999, "REV_AT_EPOCH": 523, "BSTAR": 0.0010303, "MEAN_MOTION_DOT": 0.00060643, "MEAN_MOTION_DDOT": 0}, "tle": {"line1": "1 66608U 25270W   25353.49158595  .00060643  00000+0  10303-2 0  9993", "line2": "2 66608  42.9990 153.1562 0001538 266.4602  93.6082 15.50612484  5231"}}, "geometry": {"type": "Point", "coordinates": [-94.52870649945193, 38.010419450698826]}}, {"type": "Feature", "properties": {"norad_id": 66609, "name": "STARLINK-36034", "group": "last-30-days", "lat": 37.85585470587771, "lon": -94.04017010816573, "alt_km": 406.308926339334, "timestamp": "2025-12-21T07:34:33.300254+00:00", "meta": {"OBJECT_NAME": "STARLINK-36034", "OBJECT_ID": "2025-270X", "EPOCH": "2025-12-20T17:09:50.095296", "MEAN_MOTION": 15.50362019, "ECCENTRICITY": 0.00048554, "INCLINATION": 42.9992, "RA_OF_ASC_NODE": 145.9955, "ARG_OF_PERICENTER": 131.0653, "MEAN_ANOMALY": 229.0628, "EPHEMERIS_TYPE": 0, "CLASSIFICATION_TYPE": "U", "NORAD_CAT_ID": 66609, "ELEMENT_SET_NO": 999, "REV_AT_EPOCH": 542, "BSTAR": 0.0011127835, "MEAN_MOTION_DOT": 0.00065002, "MEAN_MOTION_DDOT": 0}, "tle": {"line1": "1 66609U 25270X   25354.71516314  .00065002  00000+0  11128-2 0  9997", "line2": "2 66609  42.9992 145.9955 0004855 131.0653 229.0628 15.50362019  5425"}}, "geometry": {"type": "Point", "coordinates": [-94.04017010816573, 37.85585470587771]}}, {"type": "Feature", "properties": {"norad_id": 66610, "name": "STARLINK-35680", "group": "last-30-days", "lat": 26.67543553033432, "lon": 175.29316732725573, "alt_km": 440.26353004200337, "timestamp": "2025-12-21T07:34:33.300263+00:00", "meta": {"OBJECT_NAME": "STARLINK-35680", "OBJECT_ID": "2025-270Y", "EPOCH": "2025-12-20T22:00:01.999584", "MEAN_MOTION": 15.40656477, "ECCENTRICITY": 0.00022069, "INCLINATION": 42.9997, "RA_OF_ASC_NODE": 144.9665, "ARG_OF_PERICENTER": 289.694, "MEAN_ANOMALY": 56.0095, "EPHEMERIS_TYPE": 0, "CLASSIFICATION_TYPE": "U", "NORAD_CAT_ID": 66610, "ELEMENT_SET_NO": 999, "REV_AT_EPOCH": 582, "BSTAR": 0.0016725949, "MEAN_MOTION_DOT": 0.0007011, "MEAN_MOTION_DDOT": 0}, "tle": {"line1": "1 66610U 25270Y   25354.91668981  .00070110  00000+0  16726-2 0  9994", "line2": "2 66610  42.9997 144.9665 0002206 289.6940  56.0095 15.40656477  5829"}}, "geometry": {"type": "Point", "coordinates": [175.29316732725573, 26.67543553033432]}}, {"type": "Feature", "properties": {"norad_id": 66611, "name": "STARLINK-35583", "group": "last-30-days", "lat": 38.58104205563428, "lon": -158.51094908297426, "alt_km": 438.5705992129251, "timestamp": "2025-12-21T07:34:33.300272+00:00", "meta": {"OBJECT_NAME": "STARLINK-35583", "OBJECT_ID": "2025-270Z", "EPOCH": "2025-12-20T22:00:01.999584", "MEAN_MOTION": 15.40645592, "ECCENTRICITY": 0.0001712, "INCLINATION": 42.9992, "RA_OF_ASC_NODE": 144.906, "ARG_OF_PERICENTER": 296.2093, "MEAN_ANOMALY": 74.4658, "EPHEMERIS_TYPE": 0, "CLASSIFICATION_TYPE": "U", "NORAD_CAT_ID": 66611, "ELEMENT_SET_NO": 999, "REV_AT_EPOCH": 582, "BSTAR": 0.0020232726, "MEAN_MOTION_DOT": 0.00085007, "MEAN_MOTION_DDOT": 0}, "tle": {"line1": "1 66611U 25270Z   25354.91668981  .00085007  00000+0  20233-2 0  9994", "line2": "2 66611  42.9992 144.9060 0001712 296.2093  74.4658 15.40645592  5823"}}, "geometry": {"type": "Point", "coordinates": [-158.51094908297426, 38.58104205563428]}}, {"type": "Feature", "properties": {"norad_id": 66612, "name": "STARLINK-36039", "group": "last-30-days", "lat": 1.592852239287116, "lon": -38.50537406714322, "alt_km": 442.62034094153205, "timestamp": "2025-12-21T07:34:33.300281+00:00", "meta": {"OBJECT_NAME": "STARLINK-36039", "OBJECT_ID": "2025-270AA", "EPOCH": "2025-12-20T10:34:58.712448", "MEAN_MOTION": 15.40726185, "ECCENTRICITY": 0.00016577, "INCLINATION": 43.0005, "RA_OF_ASC_NODE": 148.2468, "ARG_OF_PERICENTER": 221.4551, "MEAN_ANOMALY": 138.618, "EPHEMERIS_TYPE": 0, "CLASSIFICATION_TYPE": "U", "NORAD_CAT_ID": 66612, "ELEMENT_SET_NO": 999, "REV_AT_EPOCH": 553, "BSTAR": 0.00084609538, "MEAN_MOTION_DOT": 0.00035234, "MEAN_MOTION_DDOT": 0}, "tle": {"line1": "1 66612U 25270AA  25354.44095732  .00035234  00000+0  84610-3 0  9998", "line2": "2 66612  43.0005 148.2468 0001657 221.4551 138.6180 15.40726185  5536"}}, "geometry": {"type": "Point", "coordinates": [-38.50537406714322, 1.592852239287116]}}, {"type": "Feature", "properties": {"norad_id": 66613, "name": "STARLINK-36037", "group": "last-30-days", "lat": -15.067241239028002, "lon": -20.062259152842184, "alt_km": 444.75992464024876, "timestamp": "2025-12-21T07:34:33.300290+00:00", "meta": {"OBJECT_NAME": "STARLINK-36037", "OBJECT_ID": "2025-270AB", "EPOCH": "2025-12-20T19:48:38.926656", "MEAN_MOTION": 15.40706615, "ECCENTRICITY": 0.00010001, "INCLINATION": 42.999, "RA_OF_ASC_NODE": 145.9711, "ARG_OF_PERICENTER": 224.1294, "MEAN_ANOMALY": 135.9482, "EPHEMERIS_TYPE": 0, "CLASSIFICATION_TYPE": "U", "NORAD_CAT_ID": 66613, "ELEMENT_SET_NO": 999, "REV_AT_EPOCH": 559, "BSTAR": 0.0012050027, "MEAN_MOTION_DOT": 0.00050376, "MEAN_MOTION_DDOT": 0}, "tle": {"line1": "1 66613U 25270AB  25354.82545054  .00050376  00000+0  12050-2 0  9990", "line2": "2 66613  42.9990 145.9711 0001000 224.1294 135.9482 15.40706615  5596"}}, "geometry": {"type": "Point", "coordinates": [-20.062259152842184, -15.067241239028002]}}]}